{"type": "FeatureCollection", "features": [ {"type": "Feature", "properties": {"norad_id": 51444, "name": "CSG-2", "group": "resource", "lat": -37.62041303621799, "lon": 170.7411944954305, "alt_km": 629.4640776260812, "timestamp": "2025-12-09T05:43:20.385637+00:00", "meta": {"OBJECT_NAME": "CSG-2", "OBJECT_ID": "2022-008A", "EPOCH": "2025-12-08T20:10:19.718400", "MEAN_MOTION": 14.82156963, "ECCENTRICITY": 0.0001507, "INCLINATION": 97.8801, "RA_OF_ASC_NODE": 164.2221, "ARG_OF_PERICENTER": 82.7944, "MEAN_ANOMALY": 277.344, "EPHEMERIS_TYPE": 0, "CLASSIFICATION_TYPE": "U", "NORAD_CAT_ID": 51444, "ELEMENT_SET_NO": 999, "REV_AT_EPOCH": 20839, "BSTAR": 7.7145e-05, "MEAN_MOTION_DOT": 5.62e-06, "MEAN_MOTION_DDOT": 0}, "tle": {"line1": "1 51444U 22008A   25342.84050600  .00000562  00000+0  77145-4 0  9999", "line2": "2 51444  97.8801 164.2221 0001507  82.7944 277.3440 14.82156963208392"}}, "geometry": {"type": "Point", "coordinates": [170.7411944954305, -37.62041303621799]}}, {"type": "Feature", "properties": {"norad_id": 52912, "name": "GAOFEN-12 03", "group": "resource", "lat": -82.1055700633133, "lon": -45.204906239365, "alt_km": 639.4041983296911, "timestamp": "2025-12-09T05:43:20.385648+00:00", "meta": {"OBJECT_NAME": "GAOFEN-12 03", "OBJECT_ID": "2022-069A", "EPOCH": "2025-12-08T20:23:12.238944", "MEAN_MOTION": 14.79594897, "ECCENTRICITY": 0.0002289, "INCLINATION": 97.8483, "RA_OF_ASC_NODE": 230.2879, "ARG_OF_PERICENTER": 66.4888, "MEAN_ANOMALY": 293.6564, "EPHEMERIS_TYPE": 0, "CLASSIFICATION_TYPE": "U", "NORAD_CAT_ID": 52912, "ELEMENT_SET_NO": 999, "REV_AT_EPOCH": 18646, "BSTAR": 0.00027232, "MEAN_MOTION_DOT": 1.99e-05, "MEAN_MOTION_DDOT": 0}, "tle": {"line1": "1 52912U 22069A   25342.84944721  .00001990  00000+0  27232-3 0  9990", "line2": "2 52912  97.8483 230.2879 0002289  66.4888 293.6564 14.79594897186465"}}, "geometry": {"type": "Point", "coordinates": [-45.204906239365, -82.1055700633133]}}, {"type": "Feature", "properties": {"norad_id": 54754, "name": "SWOT", "group": "resource", "lat": 14.818878922235974, "lon": 108.38249439048315, "alt_km": 893.6440745409764, "timestamp": "2025-12-09T05:43:20.385658+00:00", "meta": {"OBJECT_NAME": "SWOT", "OBJECT_ID": "2022-173A", "EPOCH": "2025-12-08T20:21:49.686336", "MEAN_MOTION": 14.00173921, "ECCENTRICITY": 3.46e-05, "INCLINATION": 77.6103, "RA_OF_ASC_NODE": 292.2426, "ARG_OF_PERICENTER": 122.8059, "MEAN_ANOMALY": 237.3126, "EPHEMERIS_TYPE": 0, "CLASSIFICATION_TYPE": "U", "NORAD_CAT_ID": 54754, "ELEMENT_SET_NO": 999, "REV_AT_EPOCH": 15251, "BSTAR": 9.0593e-05, "MEAN_MOTION_DOT": 1.31e-06, "MEAN_MOTION_DDOT": 0}, "tle": {"line1": "1 54754U 22173A   25342.84849174  .00000131  00000+0  90593-4 0  9995", "line2": "2 54754  77.6103 292.2426 0000346 122.8059 237.3126 14.00173921152514"}}, "geometry": {"type": "Point", "coordinates": [108.38249439048315, 14.818878922235974]}}, {"type": "Feature", "properties": {"norad_id": 57654, "name": "GAOFEN-12 04", "group": "resource", "lat": 76.67880206014821, "lon": -136.91809142559663, "alt_km": 622.1180169066201, "timestamp": "2025-12-09T05:43:20.385668+00:00", "meta": {"OBJECT_NAME": "GAOFEN-12 04", "OBJECT_ID": "2023-123A", "EPOCH": "2025-12-08T21:15:02.890368", "MEAN_MOTION": 14.79684083, "ECCENTRICITY": 0.0001389, "INCLINATION": 97.9118, "RA_OF_ASC_NODE": 258.7011, "ARG_OF_PERICENTER": 73.6968, "MEAN_ANOMALY": 286.4396, "EPHEMERIS_TYPE": 0, "CLASSIFICATION_TYPE": "U", "NORAD_CAT_ID": 57654, "ELEMENT_SET_NO": 999, "REV_AT_EPOCH": 12448, "BSTAR": 0.00037415, "MEAN_MOTION_DOT": 2.758e-05, "MEAN_MOTION_DDOT": 0}, "tle": {"line1": "1 57654U 23123A   25342.88545012  .00002758  00000+0  37415-3 0  9991", "line2": "2 57654  97.9118 258.7011 0001389  73.6968 286.4396 14.79684083124485"}}, "geometry": {"type": "Point", "coordinates": [-136.91809142559663, 76.67880206014821]}}, {"type": "Feature", "properties": {"norad_id": 59065, "name": "PARS 1", "group": "resource", "lat": 64.36849429215127, "lon": -61.759971489437916, "alt_km": 429.05591724375336, "timestamp": "2025-12-09T05:43:20.385679+00:00", "meta": {"OBJECT_NAME": "PARS 1", "OBJECT_ID": "2024-039Q", "EPOCH": "2025-12-08T21:38:49.007904", "MEAN_MOTION": 15.40844551, "ECCENTRICITY": 0.0012684, "INCLINATION": 97.4637, "RA_OF_ASC_NODE": 313.7538, "ARG_OF_PERICENTER": 83.5995, "MEAN_ANOMALY": 276.6695, "EPHEMERIS_TYPE": 0, "CLASSIFICATION_TYPE": "U", "NORAD_CAT_ID": 59065, "ELEMENT_SET_NO": 999, "REV_AT_EPOCH": 9929, "BSTAR": 0.00038617, "MEAN_MOTION_DOT": 0.00015812, "MEAN_MOTION_DDOT": 0}, "tle": {"line1": "1 59065U 24039Q   25342.90195611  .00015812  00000+0  38617-3 0  9995", "line2": "2 59065  97.4637 313.7538 0012684  83.5995 276.6695 15.40844551 99290"}}, "geometry": {"type": "Point", "coordinates": [-61.759971489437916, 64.36849429215127]}}, {"type": "Feature", "properties": {"norad_id": 59371, "name": "RESURS-P 4", "group": "resource", "lat": -40.71513504410308, "lon": -64.06601268591706, "alt_km": 476.4008300198275, "timestamp": "2025-12-09T05:43:20.385689+00:00", "meta": {"OBJECT_NAME": "RESURS-P 4", "OBJECT_ID": "2024-061A", "EPOCH": "2025-12-08T20:29:46.051872", "MEAN_MOTION": 15.32039203, "ECCENTRICITY": 0.0001788, "INCLINATION": 97.2544, "RA_OF_ASC_NODE": 289.2637, "ARG_OF_PERICENTER": 53.1663, "MEAN_ANOMALY": 306.9743, "EPHEMERIS_TYPE": 0, "CLASSIFICATION_TYPE": "U", "NORAD_CAT_ID": 59371, "ELEMENT_SET_NO": 999, "REV_AT_EPOCH": 9461, "BSTAR": 0.00020235, "MEAN_MOTION_DOT": 6.183e-05, "MEAN_MOTION_DDOT": 0}, "tle": {"line1": "1 59371U 24061A   25342.85400523  .00006183  00000+0  20235-3 0  9993", "line2": "2 59371  97.2544 289.2637 0001788  53.1663 306.9743 15.32039203 94613"}}, "geometry": {"type": "Point", "coordinates": [-64.06601268591706, -40.71513504410308]}}, {"type": "Feature", "properties": {"norad_id": 59625, "name": "LEGION 1", "group": "resource", "lat": 20.17031772809861, "lon": 55.124922291581875, "alt_km": 514.7824140587991, "timestamp": "2025-12-09T05:43:20.385700+00:00", "meta": {"OBJECT_NAME": "LEGION 1", "OBJECT_ID": "2024-081A", "EPOCH": "2025-12-08T18:32:49.831008", "MEAN_MOTION": 15.16420231, "ECCENTRICITY": 0.0004289, "INCLINATION": 97.5213, "RA_OF_ASC_NODE": 57.4452, "ARG_OF_PERICENTER": 334.3109, "MEAN_ANOMALY": 25.791, "EPHEMERIS_TYPE": 0, "CLASSIFICATION_TYPE": "U", "NORAD_CAT_ID": 59625, "ELEMENT_SET_NO": 999, "REV_AT_EPOCH": 8867, "BSTAR": 0.00041511, "MEAN_MOTION_DOT": 8.005e-05, "MEAN_MOTION_DDOT": 0}, "tle": {"line1": "1 59625U 24081A   25342.77279897  .00008005  00000+0  41511-3 0  9991", "line2": "2 59625  97.5213  57.4452 0004289 334.3109  25.7910 15.16420231 88677"}}, "geometry": {"type": "Point", "coordinates": [55.124922291581875, 20.17031772809861]}}, {"type": "Feature", "properties": {"norad_id": 59626, "name": "LEGION 2", "group": "resource", "lat": -19.919034660119213, "lon": -124.750606558116, "alt_km": 523.1884300928468, "timestamp": "2025-12-09T05:43:20.385710+00:00", "meta": {"OBJECT_NAME": "LEGION 2", "OBJECT_ID": "2024-081B", "EPOCH": "2025-12-08T19:20:26.399904", "MEAN_MOTION": 15.16433807, "ECCENTRICITY": 0.0005871, "INCLINATION": 97.5217, "RA_OF_ASC_NODE": 57.5649, "ARG_OF_PERICENTER": 310.5188, "MEAN_ANOMALY": 49.5533, "EPHEMERIS_TYPE": 0, "CLASSIFICATION_TYPE": "U", "NORAD_CAT_ID": 59626, "ELEMENT_SET_NO": 999, "REV_AT_EPOCH": 8868, "BSTAR": 0.00040144, "MEAN_MOTION_DOT": 7.744e-05, "MEAN_MOTION_DDOT": 0}, "tle": {"line1": "1 59626U 24081B   25342.80586111  .00007744  00000+0  40144-3 0  9996", "line2": "2 59626  97.5217  57.5649 0005871 310.5188  49.5533 15.16433807 88681"}}, "geometry": {"type": "Point", "coordinates": [-124.750606558116, -19.919034660119213]}}, {"type": "Feature", "properties": {"norad_id": 60182, "name": "ALOS-4 (DAICHI-4)", "group": "resource", "lat": -36.99725245802244, "lon": 84.15864808674442, "alt_km": 638.0871584256702, "timestamp": "2025-12-09T05:43:20.385720+00:00", "meta": {"OBJECT_NAME": "ALOS-4 (DAICHI-4)", "OBJECT_ID": "2024-123A", "EPOCH": "2025-12-08T20:09:07.265952", "MEAN_MOTION": 14.79472164, "ECCENTRICITY": 0.0001441, "INCLINATION": 97.9223, "RA_OF_ASC_NODE": 77.7429, "ARG_OF_PERICENTER": 99.3201, "MEAN_ANOMALY": 260.8173, "EPHEMERIS_TYPE": 0, "CLASSIFICATION_TYPE": "U", "NORAD_CAT_ID": 60182, "ELEMENT_SET_NO": 999, "REV_AT_EPOCH": 7773, "BSTAR": 0.00053163, "MEAN_MOTION_DOT": 3.921e-05, "MEAN_MOTION_DDOT": 0}, "tle": {"line1": "1 60182U 24123A   25342.83966743  .00003921  00000+0  53163-3 0  9996", "line2": "2 60182  97.9223  77.7429 0001441  99.3201 260.8173 14.79472164 77737"}}, "geometry": {"type": "Point", "coordinates": [84.15864808674442, -36.99725245802244]}}, {"type": "Feature", "properties": {"norad_id": 60452, "name": "LEGION 3", "group": "resource", "lat": -30.43543400017072, "lon": -175.0923387306285, "alt_km": 514.8955095050133, "timestamp": "2025-12-09T05:43:20.385732+00:00", "meta": {"OBJECT_NAME": "LEGION 3", "OBJECT_ID": "2024-146A", "EPOCH": "2025-12-08T19:14:27.140064", "MEAN_MOTION": 15.15698413, "ECCENTRICITY": 0.0014417, "INCLINATION": 45.0027, "RA_OF_ASC_NODE": 331.243, "ARG_OF_PERICENTER": 177.2117, "MEAN_ANOMALY": 182.8844, "EPHEMERIS_TYPE": 0, "CLASSIFICATION_TYPE": "U", "NORAD_CAT_ID": 60452, "ELEMENT_SET_NO": 999, "REV_AT_EPOCH": 7313, "BSTAR": 0.00042527, "MEAN_MOTION_DOT": 7.999e-05, "MEAN_MOTION_DDOT": 0}, "tle": {"line1": "1 60452U 24146A   25342.80170301  .00007999  00000+0  42527-3 0  9996", "line2": "2 60452  45.0027 331.2430 0014417 177.2117 182.8844 15.15698413 73138"}}, "geometry": {"type": "Point", "coordinates": [-175.0923387306285, -30.43543400017072]}}]}